#aV2024 10 21  0  0  0.00000000     288 DD+AD WGS84 FIT  NGA
## 2337  86400.00000000   300.00000000 60604 0.0000000000000
+   31     2  3  4  5  6  7  8  9 10 11 12 13 14 15 16 17 18
+         19 20 21 22 23 24 25 26 27 28 29 30 31 32  0  0  0
+          0  0  0  0  0  0  0  0  0  0  0  0  0  0  0  0  0
+          0  0  0  0  0  0  0  0  0  0  0  0  0  0  0  0  0
+          0  0  0  0  0  0  0  0  0  0  0  0  0  0  0  0  0
++         2  2  2  2  2  2  2  2  2  2  2  2  2  2  2  2  2
++         2  2  2  2  2  2  2  2  2  2  2  2  2  2  0  0  0
++         0  0  0  0  0  0  0  0  0  0  0  0  0  0  0  0  0
++         0  0  0  0  0  0  0  0  0  0  0  0  0  0  0  0  0
++         0  0  0  0  0  0  0  0  0  0  0  0  0  0  0  0  0
%c cc cc ccc ccc cccc cccc cccc cccc ccccc ccccc ccccc ccccc
%c cc cc ccc ccc cccc cccc cccc cccc ccccc ccccc ccccc ccccc
%f  0.0000000  0.000000000  0.00000000000  0.000000000000000
%f  0.0000000  0.000000000  0.00000000000  0.000000000000000
%i    0    0    0    0      0      0      0      0         0
%i    0    0    0    0      0      0      0      0         0
/*      NGA, ST. LOUIS,MO.                                  
/*   EPHEMERIS COMPUTED FROM 2 DAYS OF DATA                 
/*   EPOCHA v9 SMOOTHER                                     
/*   G2296 IERS2010 SATIGS SATAPC                           
*  2024 10 21 23 15  0.00000000
P  2   6692.648196 -18059.093929 -17663.412292   -331.953235                    
V  2  21193.015378 -10310.194089  18428.109427      0.083055                    
P  3  -6512.691509 -18821.900354 -17792.428359    577.421773                    
V  3  18830.962931  11731.381072 -19379.937633      0.113017                    
P  4    256.659091 -26195.471982   3880.757139    465.869876                    
V  4   3286.990301  -4590.013779 -31448.291404      0.067182                    
P  5  -9591.638419  11475.381066  21772.453164   -190.539026                    
V  5 -23767.354671 -14869.819101  -2548.115255     -0.012126                    
P  6 -24334.255904   3940.199521  -9962.565352    -55.759455                    
V  6  10852.290013  -6761.197369 -28869.533893     -0.279555                    
P  7 -11483.747189 -11580.214834  21557.261629    -25.704359                    
V  7  23410.266308 -11578.187412   5958.107580      0.030816                    
P  8   6630.110827 -24189.357380   7914.007549    391.363316                    
V  8   2884.149000  10467.043645  29582.461031      0.112695                    
P  9  -7709.833005 -21981.531556  12604.763351    408.989308                    
V  9   3243.157596 -16038.962013 -25855.449296      0.166389                    
P 10  23480.740813   9457.768932  -8375.966095   -166.919980                    
V 10   7977.660969   7485.555658  29705.999889     -0.136320                    
P 11 -22877.773226  12774.872645   4156.812235   -745.633406                    
V 11  -5860.020809   -405.568125 -31333.888067     -0.026649                    
P 12   1247.837521  18320.125577 -19487.732090   -546.762352                    
V 12 -19659.879035 -14036.507088 -14624.408833     -0.026303                    
P 13 -13358.021402  18473.037864  13195.069696    682.555941                    
V 13   1610.058398 -17274.265149  25600.403935      0.017635                    
P 14 -23179.617407 -12234.819411  -4957.821411    522.742410                    
V 14  -3364.691843  -6158.246737  30417.564173      0.083650                    
P 15  -3139.072285  25197.110985   6987.875300    218.507423                    
V 15  -4377.465975  -9308.883477  29568.268082      0.044606                    
P 16  14832.219731  -6586.284695  20764.786386   -148.731325                    
V 16  20536.159433  17644.371227  -8488.282356      0.099377                    
P 17 -13681.755872  -7382.463402 -21089.732784    587.322873                    
V 17   4484.823094 -27426.008453   6741.039005     -0.132967                    
P 18  12493.053214  10128.027930  21206.481103   -658.710250                    
V 18 -24149.960848  11577.500377   8487.731546     -0.011438                    
P 19 -15561.236228   2559.104022 -21457.878297    553.381866                    
V 19   4160.819191 -26643.230750  -6656.707304      0.046301                    
P 20 -19276.208636   4963.081328  17586.721072    369.452823                    
V 20 -19567.628156 -10756.799649 -18634.491908     -0.003602                    
P 21  11945.903280 -18372.016859 -13799.536826     99.254413                    
V 21  17537.561348  -6984.713099  24852.738923     -0.008375                    
P 22 -22061.978759  -7055.427631 -12315.269218    -73.062088                    
V 22 -10947.455818 -12491.544178  26225.494511     -0.032438                    
P 23  20286.403182  16733.980528   4548.111034    346.685804                    
V 23  -5817.706049  -1472.880034  31373.095488      0.081117                    
P 24  -7689.077882  19239.657490 -16844.158108   -483.941467                    
V 24 -19009.605700   8731.425060  19580.941529      0.014135                    
P 25  14379.114973  19425.047957 -11658.251857    499.437505                    
V 25 -13182.402859  -5803.342339 -26467.190223     -0.001624                    
P 26  22712.972878   1011.579803  13868.642109     49.858651                    
V 26  14194.096109  11093.129883 -23384.738238     -0.095945                    
P 27  12540.208187 -16291.375427  16278.930501    -34.657893                    
V 27    762.244981  21503.666373  20979.703597     -0.001390                    
P 28  23575.862283  -2832.570904 -11919.266839   -453.738452                    
V 28 -12346.493058   9020.228634 -26590.735798     -0.126473                    
P 29   4491.657963  23363.138962  11637.451760   -569.597650                    
V 29  -4509.204199  14353.570088 -27099.728361      0.026578                    
P 30 -20423.920649  -3941.156565  16814.068494   -297.738473                    
V 30  18083.372879 -10953.193108  19303.685601      0.075571                    
P 31  24704.816242 -10258.537088  -1146.815051   -223.030445                    
V 31     52.784097   2931.690901 -31324.786164      0.005866                    
P 32  14642.678320   4762.416368 -21444.788069   -583.912229                    
V 32  -2171.973546  27631.675480   4407.326033      0.046210                    
EOF
